NORAD_CAT_ID,OBJECT_NAME,OBJECT_TYPE,EPOCH,MEAN_MOTION,ECCENTRICITY,INCLINATION,RA_OF_ASC_NODE,ARG_OF_PERICENTER,MEAN_ANOMALY,BSTAR,MEAN_MOTION_DOT,MEAN_MOTION_DDOT,TLE_LINE0,TLE_LINE1,TLE_LINE2,SEMIMAJOR_AXIS,PERIOD,APOGEE,PERIGEE,DECAYED
51983.0,STARLINK-3655,PAYLOAD,2023-01-29 15:42:07,15.08850317,0.0001169,53.217,94.4892,91.5293,268.5833,0.00030003,4.492e-05,0.0,0 STARLINK-3655,1 51983U 22025AD  23029.65425424  .00004492  00000-0  30003-3 0  9993,2 51983  53.2170  94.4892 0001169  91.5293 268.5833 15.08850317 50826,6917.849,95.437,540.523,538.905,0.0
51983.0,STARLINK-3655,PAYLOAD,2023-01-30 07:35:59,15.08836066,0.0001468,53.2158,91.5138,103.8492,256.2664,4.2655e-05,3.91e-06,0.0,0 STARLINK-3655,1 51983U 22025AD  23030.31666167  .00000391  00000-0  42655-4 0  9990,2 51983  53.2158  91.5138 0001468 103.8492 256.2664 15.08836066 50925,6917.892,95.438,540.773,538.742,0.0
51983.0,STARLINK-3655,PAYLOAD,2023-01-30 13:57:31,15.08844767,0.0001528,53.2174,90.3266,83.5827,276.534,0.00018006,2.579e-05,0.0,0 STARLINK-3655,1 51983U 22025AD  23030.58161939  .00002579  00000-0  18006-3 0  9998,2 51983  53.2174  90.3266 0001528  83.5827 276.5340 15.08844767 49847,6917.866,95.437,540.788,538.674,0.0
51983.0,STARLINK-3655,PAYLOAD,2023-01-30 20:19:04,15.08837223,0.0001341,53.2176,89.1368,100.1644,259.9499,2.4577e-05,1.03e-06,0.0,0 STARLINK-3655,1 51983U 22025AD  23030.84658275  .00000103  00000-0  24577-4 0  9993,2 51983  53.2176  89.1368 0001341 100.1644 259.9499 15.08837223 49887,6917.889,95.438,540.682,538.826,0.0
51983.0,STARLINK-3655,PAYLOAD,2023-01-31 12:12:55,15.08850127,0.0001263,53.2175,86.1635,101.7731,258.3403,0.00028321,4.223e-05,0.0,0 STARLINK-3655,1 51983U 22025AD  23031.50897827  .00004223  00000-0  28321-3 0  9992,2 51983  53.2175  86.1635 0001263 101.7731 258.3403 15.08850127 49984,6917.849,95.437,540.588,538.841,0.0
51983.0,STARLINK-3655,PAYLOAD,2023-01-31 13:48:18,15.08853042,0.0001199,53.2175,85.8663,99.0163,261.0965,0.0004125,6.285e-05,0.0,0 STARLINK-3655,1 51983U 22025AD  23031.57521788  .00006285  00000-0  41250-3 0  9995,2 51983  53.2175  85.8663 0001199  99.0163 261.0965 15.08853042 51118,6917.841,95.437,540.535,538.876,0.0
51983.0,STARLINK-3655,PAYLOAD,2023-01-31 20:09:51,15.0884379,0.0001331,53.2176,84.677,105.1601,254.9538,0.00023045,3.382e-05,0.0,0 STARLINK-3655,1 51983U 22025AD  23031.84017991  .00003382  00000-0  23045-3 0  9998,2 51983  53.2176  84.6770 0001331 105.1601 254.9538 15.08843790 50035,6917.869,95.437,540.655,538.813,0.0
51983.0,STARLINK-3655,PAYLOAD,2023-02-01 04:06:47,15.08843539,0.0001357,53.2181,83.1911,110.0809,250.033,0.00012827,1.754e-05,0.0,0 STARLINK-3655,1 51983U 22025AD  23032.17138001  .00001754  00000-0  12827-3 0  9998,2 51983  53.2181  83.1911 0001357 110.0809 250.0330 15.08843539 51203,6917.87,95.437,540.673,538.796,0.0
51983.0,STARLINK-3655,PAYLOAD,2023-02-01 12:03:42,15.08843439,0.0001265,53.2176,81.704,99.0087,261.1049,8.4905e-05,1.064e-05,0.0,0 STARLINK-3655,1 51983U 22025AD  23032.50258005  .00001064  00000-0  84905-4 0  9993,2 51983  53.2176  81.7040 0001265  99.0087 261.1049 15.08843439 50136,6917.87,95.437,540.61,538.86,0.0
51983.0,STARLINK-3655,PAYLOAD,2023-02-02 03:57:34,15.08830945,0.0001194,53.2177,78.7309,99.8214,260.2913,-9.935e-05,-1.868e-05,0.0,0 STARLINK-3655,1 51983U 22025AD  23033.16498576 -.00001868  00000-0 -99350-4 0  9999,2 51983  53.2177  78.7309 0001194  99.8214 260.2913 15.08830945 51355,6917.908,95.438,540.599,538.947,0.0
51983.0,STARLINK-3655,PAYLOAD,2023-02-02 11:54:30,15.08839131,0.0001373,53.2173,77.2437,92.7998,267.3151,0.00014175,1.969e-05,0.0,0 STARLINK-3655,1 51983U 22025AD  23033.49618535  .00001969  00000-0  14175-3 0  9995,2 51983  53.2173  77.2437 0001373  92.7998 267.3151 15.08839131 50286,6917.883,95.438,540.698,538.798,0.0
51983.0,STARLINK-3655,PAYLOAD,2023-02-03 08:34:31,15.08842615,0.0001398,53.2172,73.378,89.1437,270.9715,0.00028139,4.194e-05,0.0,0 STARLINK-3655,1 51983U 22025AD  23034.35730737  .00004194  00000-0  28139-3 0  9998,2 51983  53.2172  73.3780 0001398  89.1437 270.9715 15.08842615 50410,6917.872,95.437,540.705,538.77,0.0
51983.0,STARLINK-3655,PAYLOAD,2023-02-04 08:25:18,15.0884547,0.0001306,53.2167,68.9168,93.9858,266.1283,0.00027189,4.043e-05,0.0,0 STARLINK-3655,1 51983U 22025AD  23035.35090757  .00004043  00000-0  27189-3 0  9997,2 51983  53.2167  68.9168 0001306  93.9858 266.1283 15.08845470 51682,6917.864,95.437,540.632,538.825,0.0
51983.0,STARLINK-3655,PAYLOAD,2023-02-04 11:36:04,15.08849615,0.0001313,53.2167,68.3217,94.8013,265.3129,0.0003178,4.775e-05,0.0,0 STARLINK-3655,1 51983U 22025AD  23035.48338581  .00004775  00000-0  31780-3 0  9995,2 51983  53.2167  68.3217 0001313  94.8013 265.3129 15.08849615 50585,6917.851,95.437,540.624,538.808,0.0
51983.0,STARLINK-3655,PAYLOAD,2023-02-04 19:33:00,15.08841436,0.0001552,53.2165,66.8347,88.2465,271.8704,0.00015196,2.131e-05,0.0,0 STARLINK-3655,1 51983U 22025AD  23035.81458987  .00002131  00000-0  15196-3 0  9992,2 51983  53.2165  66.8347 0001552  88.2465 271.8704 15.08841436 50633,6917.876,95.437,540.815,538.667,0.0
51983.0,STARLINK-3655,PAYLOAD,2023-02-05 05:05:19,15.08843005,0.000152,53.2163,65.05,99.1368,260.9796,0.0001518,2.129e-05,0.0,0 STARLINK-3655,1 51983U 22025AD  23036.21202945  .00002129  00000-0  15180-3 0  9998,2 51983  53.2163  65.0500 0001520  99.1368 260.9796 15.08843005 51816,6917.871,95.437,540.788,538.685,0.0
51983.0,STARLINK-3655,PAYLOAD,2023-02-05 13:02:14,15.08849109,0.0001286,53.2171,63.5646,94.0275,266.0864,0.00026849,3.989e-05,0.0,0 STARLINK-3655,1 51983U 22025AD  23036.54322588  .00003989  00000-0  26849-3 0  9999,2 51983  53.2171  63.5646 0001286  94.0275 266.0864 15.08849109 50744,6917.853,95.437,540.607,538.828,0.0
51983.0,STARLINK-3655,PAYLOAD,2023-02-06 09:42:15,15.08854351,0.0001413,53.2177,59.6991,96.3373,263.778,0.00024676,3.643e-05,0.0,0 STARLINK-3655,1 51983U 22025AD  23037.40434242  .00003643  00000-0  24676-3 0  9999,2 51983  53.2177  59.6991 0001413  96.3373 263.7780 15.08854351 51999,6917.837,95.437,540.679,538.724,0.0
51983.0,STARLINK-3655,PAYLOAD,2023-02-06 12:53:01,15.08860472,0.0001301,53.2175,59.1039,96.6846,263.4295,0.00035049,5.298e-05,0.0,0 STARLINK-3655,1 51983U 22025AD  23037.53681881  .00005298  00000-0  35049-3 0  9990,2 51983  53.2175  59.1039 0001301  96.6846 263.4295 15.08860472 50896,6917.818,95.436,540.583,538.783,0.0
51983.0,STARLINK-3655,PAYLOAD,2023-02-07 06:22:16,15.08846981,0.0001379,53.218,55.8343,91.4254,268.6896,0.00016409,2.325e-05,0.0,0 STARLINK-3655,1 51983U 22025AD  23038.26546480  .00002325  00000-0  16409-3 0  9993,2 51983  53.2180  55.8343 0001379  91.4254 268.6896 15.08846981 52125,6917.859,95.437,540.678,538.77,0.0
51983.0,STARLINK-3655,PAYLOAD,2023-02-07 12:43:48,15.08864961,0.0001291,53.2174,54.6435,89.0251,271.0889,0.00061225,9.476e-05,0.0,0 STARLINK-3655,1 51983U 22025AD  23038.53041845  .00009476  00000-0  61225-3 0  9998,2 51983  53.2174  54.6435 0001291  89.0251 271.0889 15.08864961 52162,6917.804,95.436,540.562,538.776,0.0
51983.0,STARLINK-3655,PAYLOAD,2023-02-08 07:48:26,15.08856105,0.0001338,53.2176,51.0752,99.9158,260.1985,0.0013844,0.00021823,0.0,0 STARLINK-3655,1 51983U 22025AD  23039.32530455  .00021823  00000-0  13844-2 0  9999,2 51983  53.2176  51.0752 0001338  99.9158 260.1985 15.08856105 52285,6917.831,95.437,540.622,538.771,0.0
51983.0,STARLINK-3655,PAYLOAD,2023-02-08 12:34:35,15.08872246,0.0001115,53.2174,50.1832,98.3287,261.7832,0.0023691,0.00037651,0.0,0 STARLINK-3655,1 51983U 22025AD  23039.52402146  .00037651  00000-0  23691-2 0  9993,2 51983  53.2174  50.1832 0001115  98.3287 261.7832 15.08872246 51192,6917.782,95.436,540.418,538.875,0.0
51983.0,STARLINK-3655,PAYLOAD,2023-02-08 17:20:45,15.08847874,8.59e-05,53.2177,49.2908,79.7967,280.3122,0.0010012,0.00015685,0.0,0 STARLINK-3655,1 51983U 22025AD  23039.72274409  .00015685  00000-0  10012-2 0  9990,2 51983  53.2177  49.2908 0000859  79.7967 280.3122 15.08847874 52346,6917.856,95.437,540.316,539.127,0.0
51983.0,STARLINK-3655,PAYLOAD,2023-02-09 07:39:13,15.08840285,0.0001352,53.2175,46.6145,82.1272,277.9873,0.0010611,0.0001664,0.0,0 STARLINK-3655,1 51983U 22025AD  23040.31891126  .00016640  00000-0  10611-2 0  9995,2 51983  53.2175  46.6145 0001352  82.1272 277.9873 15.08840285 52438,6917.88,95.438,540.68,538.809,0.0
51983.0,STARLINK-3655,PAYLOAD,2023-02-09 17:11:33,15.08842883,0.0001676,53.2173,44.8306,73.0947,287.0229,0.0012057,0.00018954,0.0,0 STARLINK-3655,1 51983U 22025AD  23040.71635445  .00018954  00000-0  12057-2 0  9995,2 51983  53.2173  44.8306 0001676  73.0947 287.0229 15.08842883 52491,6917.872,95.437,540.896,538.577,0.0
51983.0,STARLINK-3655,PAYLOAD,2023-02-10 12:16:10,15.08869036,0.0001434,53.2174,41.2622,77.6789,282.4364,0.0015298,0.00024162,0.0,0 STARLINK-3655,1 51983U 22025AD  23041.51122937  .00024162  00000-0  15298-2 0  9999,2 51983  53.2174  41.2622 0001434  77.6789 282.4364 15.08869036 51497,6917.792,95.436,540.649,538.665,0.0
51983.0,STARLINK-3655,PAYLOAD,2023-02-11 05:45:24,15.08866488,0.0001602,53.2178,37.9906,92.4333,267.6843,0.0022334,0.00035462,0.0,0 STARLINK-3655,1 51983U 22025AD  23042.23987048  .00035462  00000-0  22334-2 0  9995,2 51983  53.2178  37.9906 0001602  92.4333 267.6843 15.08866488 52727,6917.799,95.436,540.773,538.556,0.0
51983.0,STARLINK-3655,PAYLOAD,2023-02-11 12:06:56,15.08879208,0.0001369,53.2175,36.8,100.5099,259.6047,0.002314,0.00036771,0.0,0 STARLINK-3655,1 51983U 22025AD  23042.50482518  .00036771  00000-0  23140-2 0  9997,2 51983  53.2175  36.8000 0001369 100.5099 259.6047 15.08879208 51648,6917.761,95.435,540.573,538.679,0.0
51983.0,STARLINK-3655,PAYLOAD,2023-02-11 16:53:06,15.08856734,0.0001645,53.2181,35.9096,71.928,288.1892,0.0016109,0.00025454,0.0,0 STARLINK-3655,1 51983U 22025AD  23042.70355210  .00025454  00000-0  16109-2 0  9990,2 51983  53.2181  35.9096 0001645  71.9280 288.1892 15.08856734 52791,6917.829,95.436,540.832,538.556,0.0
